{"type": "FeatureCollection", "features": [ {"type": "Feature", "properties": {"norad_id": 33492, "name": "GOSAT (IBUKI)", "group": "resource", "lat": -81.78177337006842, "lon": -170.46132519335634, "alt_km": 676.9575777575565, "timestamp": "2025-12-27T15:27:10.800003+00:00", "meta": {"OBJECT_NAME": "GOSAT (IBUKI)", "OBJECT_ID": "2009-002A", "EPOCH": "2025-12-27T04:24:05.093856", "MEAN_MOTION": 14.67553436, "ECCENTRICITY": 0.00010508, "INCLINATION": 98.0771, "RA_OF_ASC_NODE": 109.5862, "ARG_OF_PERICENTER": 106.222, "MEAN_ANOMALY": 253.9101, "EPHEMERIS_TYPE": 0, "CLASSIFICATION_TYPE": "U", "NORAD_CAT_ID": 33492, "ELEMENT_SET_NO": 999, "REV_AT_EPOCH": 90623, "BSTAR": 0.00019160166, "MEAN_MOTION_DOT": 1.039e-05, "MEAN_MOTION_DDOT": 0}, "tle": {"line1": "1 33492U 09002A   25361.18339229  .00001039  00000+0  19160-3 0  9998", "line2": "2 33492  98.0771 109.5862 0001050 106.2220 253.9101 14.67553436906230"}}, "geometry": {"type": "Point", "coordinates": [-170.46132519335634, -81.78177337006842]}}, {"type": "Feature", "properties": {"norad_id": 35681, "name": "DEIMOS-1", "group": "resource", "lat": 25.982263295967506, "lon": 157.7656092453329, "alt_km": 642.9116879213661, "timestamp": "2025-12-27T15:27:10.800014+00:00", "meta": {"OBJECT_NAME": "DEIMOS-1", "OBJECT_ID": "2009-041A", "EPOCH": "2025-12-27T07:11:37.592160", "MEAN_MOTION": 14.74975988, "ECCENTRICITY": 0.00023938, "INCLINATION": 97.7159, "RA_OF_ASC_NODE": 161.2261, "ARG_OF_PERICENTER": 57.5087, "MEAN_ANOMALY": 302.6354, "EPHEMERIS_TYPE": 0, "CLASSIFICATION_TYPE": "U", "NORAD_CAT_ID": 35681, "ELEMENT_SET_NO": 999, "REV_AT_EPOCH": 88154, "BSTAR": 0.00017626894, "MEAN_MOTION_DOT": 1.138e-05, "MEAN_MOTION_DDOT": 0}, "tle": {"line1": "1 35681U 09041A   25361.29974065  .00001138  00000+0  17627-3 0  9994", "line2": "2 35681  97.7159 161.2261 0002393  57.5087 302.6354 14.74975988881542"}}, "geometry": {"type": "Point", "coordinates": [157.7656092453329, 25.982263295967506]}}, {"type": "Feature", "properties": {"norad_id": 35682, "name": "DUBAISAT-1", "group": "resource", "lat": -55.808840919820554, "lon": 144.0214085631069, "alt_km": 648.5303318635824, "timestamp": "2025-12-27T15:27:10.800025+00:00", "meta": {"OBJECT_NAME": "DUBAISAT-1", "OBJECT_ID": "2009-041B", "EPOCH": "2025-12-27T07:34:00.579936", "MEAN_MOTION": 14.7464495, "ECCENTRICITY": 0.00092775, "INCLINATION": 97.98, "RA_OF_ASC_NODE": 131.7814, "ARG_OF_PERICENTER": 261.9531, "MEAN_ANOMALY": 98.0625, "EPHEMERIS_TYPE": 0, "CLASSIFICATION_TYPE": "U", "NORAD_CAT_ID": 35682, "ELEMENT_SET_NO": 999, "REV_AT_EPOCH": 87976, "BSTAR": 0.00024412412, "MEAN_MOTION_DOT": 1.579e-05, "MEAN_MOTION_DDOT": 0}, "tle": {"line1": "1 35682U 09041B   25361.31528449  .00001579  00000+0  24412-3 0  9998", "line2": "2 35682  97.9800 131.7814 0009277 261.9531  98.0625 14.74644950879767"}}, "geometry": {"type": "Point", "coordinates": [144.0214085631069, -55.808840919820554]}}, {"type": "Feature", "properties": {"norad_id": 35931, "name": "OCEANSAT-2", "group": "resource", "lat": 61.46964168490834, "lon": -14.691351409852903, "alt_km": 882.7830211988585, "timestamp": "2025-12-27T15:27:10.800036+00:00", "meta": {"OBJECT_NAME": "OCEANSAT-2", "OBJECT_ID": "2009-051A", "EPOCH": "2025-12-27T06:34:38.391744", "MEAN_MOTION": 13.99623191, "ECCENTRICITY": 0.00158515, "INCLINATION": 98.2218, "RA_OF_ASC_NODE": 0.3997, "ARG_OF_PERICENTER": 6.7944, "MEAN_ANOMALY": 353.3435, "EPHEMERIS_TYPE": 0, "CLASSIFICATION_TYPE": "U", "NORAD_CAT_ID": 35931, "ELEMENT_SET_NO": 999, "REV_AT_EPOCH": 85528, "BSTAR": 6.2379526e-05, "MEAN_MOTION_DOT": 5.4e-07, "MEAN_MOTION_DDOT": 0}, "tle": {"line1": "1 35931U 09051A   25361.27405546  .00000054  00000+0  62380-4 0  9997", "line2": "2 35931  98.2218   0.3997 0015851   6.7944 353.3435 13.99623191855289"}}, "geometry": {"type": "Point", "coordinates": [-14.691351409852903, 61.46964168490834]}}, {"type": "Feature", "properties": {"norad_id": 35946, "name": "WORLDVIEW-2 (WV-2)", "group": "resource", "lat": 64.43055006593784, "lon": 54.36174115714009, "alt_km": 756.9206079218638, "timestamp": "2025-12-27T15:27:10.800047+00:00", "meta": {"OBJECT_NAME": "WORLDVIEW-2 (WV-2)", "OBJECT_ID": "2009-055A", "EPOCH": "2025-12-27T06:47:49.479648", "MEAN_MOTION": 14.37730577, "ECCENTRICITY": 0.00046031, "INCLINATION": 98.477, "RA_OF_ASC_NODE": 72.1678, "ARG_OF_PERICENTER": 34.5447, "MEAN_ANOMALY": 325.6038, "EPHEMERIS_TYPE": 0, "CLASSIFICATION_TYPE": "U", "NORAD_CAT_ID": 35946, "ELEMENT_SET_NO": 999, "REV_AT_EPOCH": 85094, "BSTAR": 7.9943829e-05, "MEAN_MOTION_DOT": 1.97e-06, "MEAN_MOTION_DDOT": 0}, "tle": {"line1": "1 35946U 09055A   25361.28321157  .00000197  00000+0  79944-4 0  9995", "line2": "2 35946  98.4770  72.1678 0004603  34.5447 325.6038 14.37730577850942"}}, "geometry": {"type": "Point", "coordinates": [54.36174115714009, 64.43055006593784]}}, {"type": "Feature", "properties": {"norad_id": 36036, "name": "SMOS", "group": "resource", "lat": -29.258187582448, "lon": 1.7013214764673452, "alt_km": 765.62083729595, "timestamp": "2025-12-27T15:27:10.800057+00:00", "meta": {"OBJECT_NAME": "SMOS", "OBJECT_ID": "2009-059A", "EPOCH": "2025-12-27T06:08:36.339360", "MEAN_MOTION": 14.39754308, "ECCENTRICITY": 0.00010373, "INCLINATION": 98.4382, "RA_OF_ASC_NODE": 186.0896, "ARG_OF_PERICENTER": 84.1869, "MEAN_ANOMALY": 275.9437, "EPHEMERIS_TYPE": 0, "CLASSIFICATION_TYPE": "U", "NORAD_CAT_ID": 36036, "ELEMENT_SET_NO": 999, "REV_AT_EPOCH": 84871, "BSTAR": 0.00015706219, "MEAN_MOTION_DOT": 4.49e-06, "MEAN_MOTION_DDOT": 0}, "tle": {"line1": "1 36036U 09059A   25361.25597615  .00000449  00000+0  15706-3 0  9996", "line2": "2 36036  98.4382 186.0896 0001037  84.1869 275.9437 14.39754308848718"}}, "geometry": {"type": "Point", "coordinates": [1.7013214764673452, -29.258187582448]}}, {"type": "Feature", "properties": {"norad_id": 36110, "name": "YAOGAN-7", "group": "resource", "lat": -81.96500151156826, "lon": -26.096355346337536, "alt_km": 630.9729090098381, "timestamp": "2025-12-27T15:27:10.800068+00:00", "meta": {"OBJECT_NAME": "YAOGAN-7", "OBJECT_ID": "2009-069A", "EPOCH": "2025-12-27T06:06:34.402176", "MEAN_MOTION": 14.77753868, "ECCENTRICITY": 0.00235469, "INCLINATION": 98.0293, "RA_OF_ASC_NODE": 242.9593, "ARG_OF_PERICENTER": 231.8852, "MEAN_ANOMALY": 128.0236, "EPHEMERIS_TYPE": 0, "CLASSIFICATION_TYPE": "U", "NORAD_CAT_ID": 36110, "ELEMENT_SET_NO": 999, "REV_AT_EPOCH": 86423, "BSTAR": 0.00011124746, "MEAN_MOTION_DOT": 7.48e-06, "MEAN_MOTION_DDOT": 0}, "tle": {"line1": "1 36110U 09069A   25361.25456484  .00000748  00000+0  11125-3 0  9991", "line2": "2 36110  98.0293 242.9593 0023546 231.8852 128.0236 14.77753868864238"}}, "geometry": {"type": "Point", "coordinates": [-26.096355346337536, -81.96500151156826]}}, {"type": "Feature", "properties": {"norad_id": 36605, "name": "TANDEM-X", "group": "resource", "lat": -33.11721645579968, "lon": -178.0873336377945, "alt_km": 515.3015677768908, "timestamp": "2025-12-27T15:27:10.800078+00:00", "meta": {"OBJECT_NAME": "TANDEM-X", "OBJECT_ID": "2010-030A", "EPOCH": "2025-12-26T13:13:25.252608", "MEAN_MOTION": 15.1915819, "ECCENTRICITY": 0.0001776, "INCLINATION": 97.4455, "RA_OF_ASC_NODE": 5.7293, "ARG_OF_PERICENTER": 92.0278, "MEAN_ANOMALY": 268.116, "EPHEMERIS_TYPE": 0, "CLASSIFICATION_TYPE": "U", "NORAD_CAT_ID": 36605, "ELEMENT_SET_NO": 999, "REV_AT_EPOCH": 86043, "BSTAR": 6.7415e-05, "MEAN_MOTION_DOT": 1.349e-05, "MEAN_MOTION_DDOT": 0}, "tle": {"line1": "1 36605U 10030A   25360.55098672  .00001349  00000+0  67415-4 0  9995", "line2": "2 36605  97.4455   5.7293 0001776  92.0278 268.1160 15.19158190860436"}}, "geometry": {"type": "Point", "coordinates": [-178.0873336377945, -33.11721645579968]}}, {"type": "Feature", "properties": {"norad_id": 36795, "name": "CARTOSAT-2B", "group": "resource", "lat": -68.58447160009256, "lon": -150.22167148261116, "alt_km": 647.4673056051388, "timestamp": "2025-12-27T15:27:10.800088+00:00", "meta": {"OBJECT_NAME": "CARTOSAT-2B", "OBJECT_ID": "2010-035A", "EPOCH": "2025-12-27T07:49:48.213408", "MEAN_MOTION": 14.78748388, "ECCENTRICITY": 0.00124472, "INCLINATION": 97.7831, "RA_OF_ASC_NODE": 49.8807, "ARG_OF_PERICENTER": 33.4457, "MEAN_ANOMALY": 326.7538, "EPHEMERIS_TYPE": 0, "CLASSIFICATION_TYPE": "U", "NORAD_CAT_ID": 36795, "ELEMENT_SET_NO": 999, "REV_AT_EPOCH": 83445, "BSTAR": 0.00016398198, "MEAN_MOTION_DOT": 1.155e-05, "MEAN_MOTION_DDOT": 0}, "tle": {"line1": "1 36795U 10035A   25361.32625247  .00001155  00000+0  16398-3 0  9998", "line2": "2 36795  97.7831  49.8807 0012447  33.4457 326.7538 14.78748388834453"}}, "geometry": {"type": "Point", "coordinates": [-150.22167148261116, -68.58447160009256]}}, {"type": "Feature", "properties": {"norad_id": 36834, "name": "YAOGAN-10", "group": "resource", "lat": -71.82173026922624, "lon": 46.41438401637199, "alt_km": 622.7308619723899, "timestamp": "2025-12-27T15:27:10.800099+00:00", "meta": {"OBJECT_NAME": "YAOGAN-10", "OBJECT_ID": "2010-038A", "EPOCH": "2025-12-27T07:57:07.055424", "MEAN_MOTION": 14.84663049, "ECCENTRICITY": 0.00012573, "INCLINATION": 97.9135, "RA_OF_ASC_NODE": 21.0419, "ARG_OF_PERICENTER": 81.5895, "MEAN_ANOMALY": 335.4129, "EPHEMERIS_TYPE": 0, "CLASSIFICATION_TYPE": "U", "NORAD_CAT_ID": 36834, "ELEMENT_SET_NO": 999, "REV_AT_EPOCH": 83170, "BSTAR": 0.00027280083, "MEAN_MOTION_DOT": 2.254e-05, "MEAN_MOTION_DDOT": 0}, "tle": {"line1": "1 36834U 10038A   25361.33133166  .00002254  00000+0  27280-3 0  9993", "line2": "2 36834  97.9135  21.0419 0001257  81.5895 335.4129 14.84663049831709"}}, "geometry": {"type": "Point", "coordinates": [46.41438401637199, -71.82173026922624]}}]}